[{"OBJECT_NAME":"STARLINK-3721","OBJECT_ID":"2022-029AY","EPOCH":"2026-03-09T06:34:34.208256","MEAN_MOTION":15.0883896,"ECCENTRICITY":0.00013808,"INCLINATION":53.2182,"RA_OF_ASC_NODE":70.9864,"ARG_OF_PERICENTER":93.7972,"MEAN_ANOMALY":266.3178,"EPHEMERIS_TYPE":0,"CLASSIFICATION_TYPE":"U","NORAD_CAT_ID":52134,"ELEMENT_SET_NO":999,"REV_AT_EPOCH":22087,"BSTAR":3.2336232e-5,"MEAN_MOTION_DOT":2.27e-6,"MEAN_MOTION_DDOT":0},{"OBJECT_NAME":"COSMOS 397 DEB","OBJECT_ID":"1971-015AJ","EPOCH":"2026-03-09T18:29:11.550048","MEAN_MOTION":14.57731986,"ECCENTRICITY":0.02840491,"INCLINATION":65.3533,"RA_OF_ASC_NODE":250.7757,"ARG_OF_PERICENTER":34.5343,"MEAN_ANOMALY":327.3849,"EPHEMERIS_TYPE":0,"CLASSIFICATION_TYPE":"U","NORAD_CAT_ID":5155,"ELEMENT_SET_NO":999,"REV_AT_EPOCH":73323,"BSTAR":0.001223321,"MEAN_MOTION_DOT":9.675e-5,"MEAN_MOTION_DDOT":0}]
